#dP2017  9  1  0  0  0.00000000     288   u+U IGS14 FIT  GFZ                    
## 1964 432000.00000000   300.00000000 57997 0.0000000000000                    
+   85   C01C02C04C05C06C07C08C09C10C11C12C13C14E01E02E03E04                    
+        E05E07E08E09E11E12E14E18E19E22E24E26E30G01G02G03G04                    
+        G05G06G07G08G09G10G11G12G13G14G15G16G17G18G19G20G21                    
+        G22G23G24G25G26G27G28G29G30G31G32J01R01R02R03R04R05                    
+        R06R07R08R09R10R11R13R15R16R17R18R19R20R21R22R23R24                    
+         00 00 00 00 00 00 00 00 00 00 00 00 00 00 00 00 00                    
++        10 10 10 10  8  8 10 10  9  9 10 10  8  6  7  5  6                    
++         7  6  6  6  7  6  6  6  6  7  5  7  8  5  5  6 10                    
++         0  7  5  6  5  7  6  6  6  9  8  6  6  5  6  6  7                    
++         5  5  6  6  5  5  6  9  5  7  5 10  9  7  5  8 10                    
++         6  8  6 10  5  7  6  9 10  5  7  8  6  6  5  6  7                    
++         0  0  0  0  0  0  0  0  0  0  0  0  0  0  0  0  0                    
%c M  cc GPS ccc cccc cccc cccc cccc ccccc ccccc ccccc ccccc                    
%c cc cc ccc ccc cccc cccc cccc cccc ccccc ccccc ccccc ccccc                    
%f  1.2500000  1.025000000  0.00000000000  0.000000000000000                    
%f  0.0000000  0.000000000  0.00000000000  0.000000000000000                    
%i    0    0    0    0      0      0      0      0         0                    
%i    0    0    0    0      0      0      0      0         0                    
/* PCV:IGS14_1958 OL/AL:FES2004  NONE     YN CLK:CoN ORB:CoN                    
/*     GeoForschungsZentrum Potsdam                                             
/*                                                                              
/*                                                                              
*  2017  9  1 17 55  0.00000000                                                 
PC01 -32268.194409  27155.041083    440.132572 999999.999999                    
PC02   4352.294230  41924.547597  -1281.694365     83.620400                    
PC04 -39616.465711  14506.205073    -20.769644     96.479483                    
PC05  21902.551606  35982.376268  -1623.156516    304.964249                    
PC06 -20650.974235  36436.463662   3461.198438     -2.486133                    
PC07  -7798.959047  30182.273403  28703.271722     99.583887                    
PC08 -20155.410371  19104.736911 -31747.295395   -581.658221                    
PC09 -10078.943688  36616.660224  18154.776221   -895.966213                    
PC10   4572.417107  37338.457278  19511.038886    135.302248                    
PC11 -27001.395840   5909.427370   4219.406128    517.622111                    
PC12 -18203.325024  -7777.676992  19753.958920    173.901769                    
PC13  -2738.038841  23723.069067 -34764.903894    707.353857                    
PC14 -16579.222983   4437.592420 -21940.642226    854.351752                    
PE01   8810.908997  26829.080415   8904.092401   -150.997785                    
PE02  -8825.231498 -26818.510939  -8878.426794     -8.073629                    
PE03   1854.047595 -25066.297160 -15619.182649     66.324423                    
PE04  13519.320842  10741.177880  24050.303848    129.247353                    
PE05  16163.508678 -24720.823178   1977.702168    428.481050                    
PE07 -20978.317194   9918.394839 -18367.738429    177.256520                    
PE08 -13447.660705 -10606.946715 -24132.288079   6748.283532                    
PE09  20772.812920 -10076.386349  18529.691026   7028.815543                    
PE11  29163.383034  -2928.831682   4176.289957   1800.720508                    
PE12  24522.410318   9253.234037 -13769.309710   2296.597007                    
PE14   2949.826869  20562.238643 -23511.388441   6723.528074                    
PE18   8614.027520 -18561.884624  15011.889552   6833.683154                    
PE19  -3312.084220  25704.818011  14299.705389     13.707971                    
PE22  -6255.809072 -16322.335233  23874.495479   6579.826603                    
PE24  18231.386733   1413.824202 -23279.070923   5743.826129                    
PE26 -16814.967801  13731.715836 -20131.717633   6889.980535                    
PE30 -19175.533158 -20027.652793  10353.866196   6522.912179                    
PG01  22504.817189  14137.669353  -2805.853322     55.541025                    
PG02  -5878.342118 -17985.578093  19272.929821    340.430340                    
PG03  13413.499893  13711.828321  18378.227869    -72.512467                    
PG04  -7894.201890  19926.444381 -15497.901688     19.064186                    
PG05  -3902.247509 -25956.610521  -3312.636642    -31.001471                    
PG06   9675.632082 -11829.889257  21741.127002    393.749822                    
PG07  23929.768491   4435.101678 -10958.752889    308.193628                    
PG08   7910.049138  12806.727003 -21833.413904    -71.990471                    
PG09  23142.786980  -4747.228835  12129.014401    435.524149                    
PG10 -11213.077707  16872.540945 -17083.588171     53.423666                    
PG11  20931.098194  11362.113801 -12234.814839   -712.927158                    
PG12 -10197.308635 -18529.629371  16021.737519    374.149048                    
PG13     87.994577 -16180.601728 -21179.460088    -90.667094                    
PG14 -15707.349468  17816.243322  11995.144800    -82.494151                    
PG15 -12368.810705 -10562.953218 -21207.815791   -355.356069                    
PG16    454.738110  26257.251383  -2185.368138     36.928656                    
PG17  21525.172215 -15057.437574   3663.983648   -159.857164                    
PG18 -14906.211288   6169.368783 -20489.705171    628.558137                    
PG19  17444.309836 -16927.611808  10700.540732   -488.314011                    
PG20 -13584.036257 -17637.248425 -14649.488848    485.212253                    
PG21 -22546.240475     89.011862 -13320.250850   -482.709870                    
PG22  11317.904237  20652.894866  12485.392673   -107.626339                    
PG23  18939.527693   3832.366994  18656.538884   -216.924352                    
PG24 -21512.964883 -14821.012001  -5577.044644    -39.332330                    
PG25 -14601.593295  -5873.111853  21275.707872   -448.970313                    
PG26  -4546.905358  24734.951040   8401.223883   -437.530570                    
PG27  -4415.673178  18060.210729 -18942.809824    318.997585                    
PG28  12782.323728 -13211.317511 -18545.137562    642.249912                    
PG29 -22168.123773   1178.674955  14554.046122    567.995152                    
PG30  17892.039095  -5192.034969 -18976.100444    142.824317                    
PG31  -7750.056530  13006.914060  21891.418999    178.073432                    
PG32 -19629.122695  17058.093788   5282.053030   -493.121396                    
PJ01 -19073.746244  30610.107724 -17248.543874    -40.779419                    
PR01  11744.350071      0.046347  22645.904142     14.911379                    
PR02  13384.911429 -18253.558260  11845.487419    268.142669                    
PR03   6746.781726 -23969.202681  -5584.722771    109.616073                    
PR04  -4113.479939 -15329.264625 -19956.020292    229.109816                    
PR05 -12208.569337   1603.812423 -22345.119419   -157.081869                    
PR06 -13028.419104  18955.060004 -11006.169583    116.970120                    
PR07  -6492.222430  23901.490925   6070.089448    -15.238906                    
PR08   3782.249100  15795.754561  19721.937466    -26.749044                    
PR09  -9547.222021   5651.697571  22983.691429     36.648080                    
PR10   4910.315660  18850.444185  16505.610191      9.751006                    
PR11  15422.211640  20352.627123    142.673855     -9.126827                    
PR13   8156.381177  -7041.757889 -23132.877825     -2.258508                    
PR15 -14284.744926 -20962.211511  -3091.889433     -0.604731                    
PR16 -17435.949808  -9962.478742  15775.475919     73.242989                    
PR17   6462.307218 -11185.922391  21988.256474     68.185559                    
PR18 -11909.992848  -8137.371994  21027.887208    164.521317                    
PR19 -24267.413024   -730.356469   7826.113095    -21.833055                    
PR20 -21870.602636   7467.981383 -10747.229326   -305.548606                    
PR21  -6440.479618  11131.356559 -22040.849747    132.181028                    
PR22  13532.142931   7553.755721 -20304.875301     27.198605                    
PR23  24954.234346   -955.637086  -5208.449799    105.220162                    
PR24  21634.896048  -7936.699329  10914.340124   -155.174134                    
EOF                                     
